{
  "type": "Feature",
  "properties": {"name": "Садовое кольцо"},
  "geometry": {
    "type": "Polygon",
    "coordinates": [[
      [37.6478, 55.7700],
      [37.6577, 55.7677],
      [37.6597, 55.7507],
      [37.6358, 55.7376],
      [37.6093, 55.7339],
      [37.5860, 55.7345],
      [37.5825, 55.7497],
      [37.5839, 55.7616],
      [37.5895, 55.7706],
      [37.5982, 55.7733],
      [37.6066, 55.7755],
      [37.6203, 55.7745],
      [37.6312, 55.7724],
      [37.6403, 55.7710],
      [37.6478, 55.7700]
    ]]
  }
}
